start=new Date('2022-02-26T00:00:00.000Z').valueOf();
sats=[{"ARG_OF_PERICENTER":"65.5313","MEAN_ANOMALY":"294.5836","DECAY_DATE":null,"SITE":"AFETR","CLASSIFICATION_TYPE":"U","PERIOD":"95.592","TLE_LINE1":"1 45709U 20035BE  22056.73633094  .00000127  00000-0  27402-4 0  9994","TLE_LINE2":"2 45709  53.0556 168.9636 0001533  65.5313 294.5836 15.06402554 97101","PERIAPSIS":"546.144","TIME_SYSTEM":"UTC","ELEMENT_SET_NO":"999","APOAPSIS":"548.267","FILE":"3323947","MEAN_MOTION_DDOT":"0.0000000000000","INCLINATION":"53.0556","MEAN_MOTION_DOT":"0.00000127","RCS_SIZE":"LARGE","SEMIMAJOR_AXIS":"6925.341","NORAD_CAT_ID":"45709","LAUNCH_DATE":"2020-06-04","RA_OF_ASC_NODE":"168.9636","REF_FRAME":"TEME","ECCENTRICITY":"0.00015330","OBJECT_NAME":"STARLINK-1421","OBJECT_TYPE":"PAYLOAD","MEAN_ELEMENT_THEORY":"SGP4","BSTAR":"0.00002740200000","MEAN_MOTION":"15.06402554","EPHEMERIS_TYPE":"0","COUNTRY_CODE":"US","REV_AT_EPOCH":"9710","EPOCH":"2022-02-25T17:40:18.993216","OBJECT_ID":"2020-035BE","GP_ID":"197030687","CENTER_NAME":"EARTH"},{"PERIOD":"95.592","SITE":"AFETR","CLASSIFICATION_TYPE":"U","DECAY_DATE":null,"MEAN_ANOMALY":"304.7020","ARG_OF_PERICENTER":"55.4132","TIME_SYSTEM":"UTC","PERIAPSIS":"546.030","TLE_LINE2":"2 45710  53.0554 168.9740 0001733  55.4132 304.7020 15.06394640 97145","TLE_LINE1":"1 45710U 20035BF  22056.73264849 -.00000550  00000-0 -18022-4 0  9994","OBJECT_NAME":"STARLINK-1423","ECCENTRICITY":"0.00017330","REF_FRAME":"TEME","RA_OF_ASC_NODE":"168.9740","LAUNCH_DATE":"2020-06-04","NORAD_CAT_ID":"45710","INCLINATION":"53.0554","MEAN_MOTION_DOT":"-0.00000550","RCS_SIZE":"LARGE","SEMIMAJOR_AXIS":"6925.365","MEAN_MOTION_DDOT":"0.0000000000000","FILE":"3323947","APOAPSIS":"548.430","ELEMENT_SET_NO":"999","CENTER_NAME":"EARTH","GP_ID":"197029935","EPOCH":"2022-02-25T17:35:00.829536","OBJECT_ID":"2020-035BF","COUNTRY_CODE":"US","EPHEMERIS_TYPE":"0","REV_AT_EPOCH":"9714","MEAN_MOTION":"15.06394640","OBJECT_TYPE":"PAYLOAD","MEAN_ELEMENT_THEORY":"SGP4","BSTAR":"-0.00001802200000"},{"MEAN_MOTION_DDOT":"0.0000000000000","SEMIMAJOR_AXIS":"6925.332","RCS_SIZE":"LARGE","MEAN_MOTION_DOT":"0.00003680","INCLINATION":"53.0528","ELEMENT_SET_NO":"999","FILE":"3323947","APOAPSIS":"548.269","REF_FRAME":"TEME","ECCENTRICITY":"0.00015480","OBJECT_NAME":"STARLINK-1433","NORAD_CAT_ID":"45711","LAUNCH_DATE":"2020-06-04","RA_OF_ASC_NODE":"168.7668","REV_AT_EPOCH":"9714","COUNTRY_CODE":"US","EPHEMERIS_TYPE":"0","BSTAR":"0.00026581000000","OBJECT_TYPE":"PAYLOAD","MEAN_ELEMENT_THEORY":"SGP4","MEAN_MOTION":"15.06405396","CENTER_NAME":"EARTH","OBJECT_ID":"2020-035BG","EPOCH":"2022-02-25T18:44:00.617280","GP_ID":"197030185","DECAY_DATE":null,"ARG_OF_PERICENTER":"57.1994","MEAN_ANOMALY":"302.9144","PERIOD":"95.592","CLASSIFICATION_TYPE":"U","SITE":"AFETR","TLE_LINE2":"2 45711  53.0528 168.7668 0001548  57.1994 302.9144 15.06405396 97141","PERIAPSIS":"546.125","TLE_LINE1":"1 45711U 20035BG  22056.78056270  .00003680  00000-0  26581-3 0  9990","TIME_SYSTEM":"UTC"},{"GP_ID":"197030432","OBJECT_ID":"2020-035BH","EPOCH":"2022-02-25T18:38:42.086400","CENTER_NAME":"EARTH","MEAN_MOTION":"15.06407172","BSTAR":"0.00023120000000","OBJECT_TYPE":"PAYLOAD","MEAN_ELEMENT_THEORY":"SGP4","REV_AT_EPOCH":"9715","COUNTRY_CODE":"US","EPHEMERIS_TYPE":"0","LAUNCH_DATE":"2020-06-04","RA_OF_ASC_NODE":"168.7881","NORAD_CAT_ID":"45712","ECCENTRICITY":"0.00015980","OBJECT_NAME":"STARLINK-1434","REF_FRAME":"TEME","APOAPSIS":"548.298","FILE":"3323947","ELEMENT_SET_NO":"999","SEMIMAJOR_AXIS":"6925.327","RCS_SIZE":"LARGE","INCLINATION":"53.0536","MEAN_MOTION_DOT":"0.00003164","MEAN_MOTION_DDOT":"0.0000000000000","TIME_SYSTEM":"UTC","TLE_LINE1":"1 45712U 20035BH  22056.77687600  .00003164  00000-0  23120-3 0  9990","PERIAPSIS":"546.085","TLE_LINE2":"2 45712  53.0536 168.7881 0001598  78.8480 281.2689 15.06407172 97151","CLASSIFICATION_TYPE":"U","SITE":"AFETR","PERIOD":"95.592","MEAN_ANOMALY":"281.2689","ARG_OF_PERICENTER":"78.8480","DECAY_DATE":null},{"CENTER_NAME":"EARTH","GP_ID":"197031187","EPOCH":"2022-02-25T19:07:54.245568","OBJECT_ID":"2020-035BJ","COUNTRY_CODE":"US","EPHEMERIS_TYPE":"0","REV_AT_EPOCH":"9686","MEAN_MOTION":"15.06389681","MEAN_ELEMENT_THEORY":"SGP4","OBJECT_TYPE":"PAYLOAD","BSTAR":"-0.00000251250000","OBJECT_NAME":"STARLINK-1436","ECCENTRICITY":"0.00014780","REF_FRAME":"TEME","LAUNCH_DATE":"2020-06-04","RA_OF_ASC_NODE":"188.6884","NORAD_CAT_ID":"45713","INCLINATION":"53.0532","MEAN_MOTION_DOT":"-0.00000319","SEMIMAJOR_AXIS":"6925.380","RCS_SIZE":"LARGE","MEAN_MOTION_DDOT":"0.0000000000000","APOAPSIS":"548.269","FILE":"3323947","ELEMENT_SET_NO":"999","TIME_SYSTEM":"UTC","PERIAPSIS":"546.222","TLE_LINE2":"2 45713  53.0532 188.6884 0001478  64.6084 295.5058 15.06389681 96861","TLE_LINE1":"1 45713U 20035BJ  22056.79715562 -.00000319  00000-0 -25125-5 0  9992","PERIOD":"95.593","SITE":"AFETR","CLASSIFICATION_TYPE":"U","DECAY_DATE":null,"MEAN_ANOMALY":"295.5058","ARG_OF_PERICENTER":"64.6084"},{"CENTER_NAME":"EARTH","EPOCH":"2022-02-25T17:19:05.123712","OBJECT_ID":"2020-035BK","GP_ID":"197029436","EPHEMERIS_TYPE":"0","COUNTRY_CODE":"US","REV_AT_EPOCH":"9714","MEAN_ELEMENT_THEORY":"SGP4","OBJECT_TYPE":"PAYLOAD","BSTAR":"0.00000518220000","MEAN_MOTION":"15.06398877","REF_FRAME":"TEME","OBJECT_NAME":"STARLINK-1437","ECCENTRICITY":"0.00012360","NORAD_CAT_ID":"45714","LAUNCH_DATE":"2020-06-04","RA_OF_ASC_NODE":"169.0334","MEAN_MOTION_DDOT":"0.0000000000000","MEAN_MOTION_DOT":"-0.00000204","INCLINATION":"53.0541","RCS_SIZE":"LARGE","SEMIMAJOR_AXIS":"6925.352","ELEMENT_SET_NO":"999","APOAPSIS":"548.073","FILE":"3323947","TIME_SYSTEM":"UTC","TLE_LINE2":"2 45714  53.0541 169.0334 0001236  72.2561 287.8563 15.06398877 97146","PERIAPSIS":"546.361","TLE_LINE1":"1 45714U 20035BK  22056.72158708 -.00000204  00000-0  51822-5 0  9994","PERIOD":"95.592","SITE":"AFETR","CLASSIFICATION_TYPE":"U","DECAY_DATE":null,"ARG_OF_PERICENTER":"72.2561","MEAN_ANOMALY":"287.8563"},{"DECAY_DATE":null,"ARG_OF_PERICENTER":"64.0761","MEAN_ANOMALY":"296.0541","PERIOD":"90.653","SITE":"AFETR","CLASSIFICATION_TYPE":"U","TLE_LINE2":"2 45716  52.9955 321.3304 0002708  64.0761 296.0541 15.88467296100045","PERIAPSIS":"304.771","TLE_LINE1":"1 45716U 20035BM  22056.92396842  .00103739  00000-0  36350-3 0  9994","TIME_SYSTEM":"UTC","MEAN_MOTION_DDOT":"0.0000000000000","MEAN_MOTION_DOT":"0.00103739","INCLINATION":"52.9955","SEMIMAJOR_AXIS":"6684.716","RCS_SIZE":"LARGE","ELEMENT_SET_NO":"999","FILE":"3323947","APOAPSIS":"308.392","REF_FRAME":"TEME","ECCENTRICITY":"0.00027080","OBJECT_NAME":"STARLINK-1439","NORAD_CAT_ID":"45716","LAUNCH_DATE":"2020-06-04","RA_OF_ASC_NODE":"321.3304","COUNTRY_CODE":"US","EPHEMERIS_TYPE":"0","REV_AT_EPOCH":"10004","OBJECT_TYPE":"PAYLOAD","MEAN_ELEMENT_THEORY":"SGP4","BSTAR":"0.00036350000000","MEAN_MOTION":"15.88467296","CENTER_NAME":"EARTH","EPOCH":"2022-02-25T22:10:30.871488","OBJECT_ID":"2020-035BM","GP_ID":"197029686"},{"FILE":"3323947","APOAPSIS":"548.540","ELEMENT_SET_NO":"999","SEMIMAJOR_AXIS":"6925.359","RCS_SIZE":"LARGE","INCLINATION":"53.0569","MEAN_MOTION_DOT":"0.00003065","MEAN_MOTION_DDOT":"0.0000000000000","LAUNCH_DATE":"2020-06-13","RA_OF_ASC_NODE":"9.5676","NORAD_CAT_ID":"45730","ECCENTRICITY":"0.00018990","OBJECT_NAME":"STARLINK-1461","REF_FRAME":"TEME","MEAN_MOTION":"15.06396465","BSTAR":"0.00022457000000","MEAN_ELEMENT_THEORY":"SGP4","OBJECT_TYPE":"PAYLOAD","REV_AT_EPOCH":"9417","EPHEMERIS_TYPE":"0","COUNTRY_CODE":"US","GP_ID":"197030433","OBJECT_ID":"2020-038A","EPOCH":"2022-02-25T14:23:56.295168","CENTER_NAME":"EARTH","MEAN_ANOMALY":"304.5484","ARG_OF_PERICENTER":"55.5685","DECAY_DATE":null,"CLASSIFICATION_TYPE":"U","SITE":"AFETR","PERIOD":"95.592","TLE_LINE1":"1 45730U 20038A   22056.59995712  .00003065  00000-0  22457-3 0  9991","PERIAPSIS":"545.909","TLE_LINE2":"2 45730  53.0569   9.5676 0001899  55.5685 304.5484 15.06396465 94177","TIME_SYSTEM":"UTC"},{"CENTER_NAME":"EARTH","GP_ID":"196936781","EPOCH":"2022-02-25T06:47:28.242528","OBJECT_ID":"2020-038B","EPHEMERIS_TYPE":"0","COUNTRY_CODE":"US","REV_AT_EPOCH":"9508","MEAN_MOTION":"15.06396911","OBJECT_TYPE":"PAYLOAD","MEAN_ELEMENT_THEORY":"SGP4","BSTAR":"0.00002778000000","OBJECT_NAME":"STARLINK-1465","ECCENTRICITY":"0.00015260","REF_FRAME":"TEME","RA_OF_ASC_NODE":"11.0009","LAUNCH_DATE":"2020-06-13","NORAD_CAT_ID":"45731","INCLINATION":"53.0558","MEAN_MOTION_DOT":"0.00000132","SEMIMAJOR_AXIS":"6925.358","RCS_SIZE":"LARGE","MEAN_MOTION_DDOT":"0.0000000000000","APOAPSIS":"548.280","FILE":"3321727","ELEMENT_SET_NO":"999","TIME_SYSTEM":"UTC","PERIAPSIS":"546.166","TLE_LINE2":"2 45731  53.0558  11.0009 0001526  75.2677 284.8481 15.06396911 95085","TLE_LINE1":"1 45731U 20038B   22056.28296577  .00000132  00000-0  27780-4 0  9998","PERIOD":"95.592","SITE":"AFETR","CLASSIFICATION_TYPE":"U","DECAY_DATE":null,"MEAN_ANOMALY":"284.8481","ARG_OF_PERICENTER":"75.2677"},{"EPHEMERIS_TYPE":"0","COUNTRY_CODE":"US","REV_AT_EPOCH":"9416","MEAN_MOTION":"15.06414000","MEAN_ELEMENT_THEORY":"SGP4","OBJECT_TYPE":"PAYLOAD","BSTAR":"0.00065472000000","CENTER_NAME":"EARTH","GP_ID":"197029437","EPOCH":"2022-02-25T14:29:15.496512","OBJECT_ID":"2020-038C","MEAN_MOTION_DOT":"0.00009488","INCLINATION":"53.0548","RCS_SIZE":"LARGE","SEMIMAJOR_AXIS":"6925.306","MEAN_MOTION_DDOT":"0.0000000000000","APOAPSIS":"548.592","FILE":"3323947","ELEMENT_SET_NO":"999","ECCENTRICITY":"0.00020530","OBJECT_NAME":"STARLINK-1466","REF_FRAME":"TEME","LAUNCH_DATE":"2020-06-13","RA_OF_ASC_NODE":"9.5544","NORAD_CAT_ID":"45732","PERIAPSIS":"545.749","TLE_LINE2":"2 45732  53.0548   9.5544 0002053  57.5501 302.5686 15.06414000 94169","TLE_LINE1":"1 45732U 20038C   22056.60365158  .00009488  00000-0  65472-3 0  9999","TIME_SYSTEM":"UTC","DECAY_DATE":null,"MEAN_ANOMALY":"302.5686","ARG_OF_PERICENTER":"57.5501","PERIOD":"95.591","SITE":"AFETR","CLASSIFICATION_TYPE":"U"}];
